start=new Date('2021-12-12T00:00:00.000Z').valueOf();
sats=[{"INCLINATION":"53.0570","ARG_OF_PERICENTER":"56.6477","RCS_SIZE":"LARGE","PERIAPSIS":"545.833","OBJECT_NAME":"STARLINK-2483","TLE_LINE1":"1 48140U 21027BA  21345.87185049 -.00000458  00000-0 -11837-4 0  9999","REF_FRAME":"TEME","PERIOD":"95.592","MEAN_MOTION_DDOT":"0.0000000000000","GP_ID":"191521435","EPOCH":"2021-12-11T20:55:27.882336","FILE":"3237650","EPHEMERIS_TYPE":"0","TIME_SYSTEM":"UTC","MEAN_ELEMENT_THEORY":"SGP4","BSTAR":"-0.00001183700000","TLE_LINE2":"2 48140  53.0570 284.5263 0002014  56.6477 303.4705 15.06395391 38972","ECCENTRICITY":"0.00020140","MEAN_MOTION_DOT":"-0.00000458","REV_AT_EPOCH":"3897","RA_OF_ASC_NODE":"284.5263","CLASSIFICATION_TYPE":"U","SITE":"AFETR","LAUNCH_DATE":"2021-04-07","COUNTRY_CODE":"US","OBJECT_TYPE":"PAYLOAD","NORAD_CAT_ID":"48140","SEMIMAJOR_AXIS":"6925.363","DECAY_DATE":null,"APOAPSIS":"548.622","MEAN_ANOMALY":"303.4705","CENTER_NAME":"EARTH","OBJECT_ID":"2021-027BA","MEAN_MOTION":"15.06395391","ELEMENT_SET_NO":"999"},{"LAUNCH_DATE":"2021-04-07","SITE":"AFETR","CLASSIFICATION_TYPE":"U","RA_OF_ASC_NODE":"284.7354","NORAD_CAT_ID":"48141","OBJECT_TYPE":"PAYLOAD","COUNTRY_CODE":"US","MEAN_ANOMALY":"298.1148","APOAPSIS":"548.745","DECAY_DATE":null,"SEMIMAJOR_AXIS":"6925.374","MEAN_MOTION":"15.06391749","ELEMENT_SET_NO":"999","OBJECT_ID":"2021-027BB","CENTER_NAME":"EARTH","OBJECT_NAME":"STARLINK-2484","PERIAPSIS":"545.733","RCS_SIZE":"LARGE","ARG_OF_PERICENTER":"62.0061","INCLINATION":"53.0553","MEAN_MOTION_DDOT":"0.0000000000000","PERIOD":"95.593","REF_FRAME":"TEME","TLE_LINE1":"1 48141U 21027BB  21345.82857767  .00001611  00000-0  12707-3 0  9994","FILE":"3237650","EPHEMERIS_TYPE":"0","EPOCH":"2021-12-11T19:53:09.110688","GP_ID":"191521685","REV_AT_EPOCH":"3898","MEAN_MOTION_DOT":"0.00001611","ECCENTRICITY":"0.00021750","TLE_LINE2":"2 48141  53.0553 284.7354 0002175  62.0061 298.1148 15.06391749 38980","BSTAR":"0.00012707000000","MEAN_ELEMENT_THEORY":"SGP4","TIME_SYSTEM":"UTC"},{"MEAN_MOTION":"15.06393620","ELEMENT_SET_NO":"999","OBJECT_ID":"2021-027BC","CENTER_NAME":"EARTH","MEAN_ANOMALY":"303.3714","DECAY_DATE":null,"APOAPSIS":"548.780","SEMIMAJOR_AXIS":"6925.368","NORAD_CAT_ID":"48142","COUNTRY_CODE":"US","OBJECT_TYPE":"PAYLOAD","SITE":"AFETR","LAUNCH_DATE":"2021-04-07","RA_OF_ASC_NODE":"264.7080","CLASSIFICATION_TYPE":"U","MEAN_MOTION_DOT":"-0.00000746","REV_AT_EPOCH":"3925","TLE_LINE2":"2 48142  53.0548 264.7080 0002233  56.7488 303.3714 15.06393620 39256","ECCENTRICITY":"0.00022330","TIME_SYSTEM":"UTC","MEAN_ELEMENT_THEORY":"SGP4","BSTAR":"-0.00003115600000","EPOCH":"2021-12-11T20:01:06.557088","EPHEMERIS_TYPE":"0","FILE":"3237650","GP_ID":"191522929","PERIOD":"95.593","MEAN_MOTION_DDOT":"0.0000000000000","REF_FRAME":"TEME","TLE_LINE1":"1 48142U 21027BC  21345.83410367 -.00000746  00000-0 -31156-4 0  9997","OBJECT_NAME":"STARLINK-2485","PERIAPSIS":"545.687","ARG_OF_PERICENTER":"56.7488","RCS_SIZE":"LARGE","INCLINATION":"53.0548"},{"EPOCH":"2021-12-11T18:33:25.200576","FILE":"3237650","EPHEMERIS_TYPE":"0","GP_ID":"191522687","MEAN_MOTION_DOT":"0.00000621","REV_AT_EPOCH":"3987","TIME_SYSTEM":"UTC","BSTAR":"0.00006423400000","MEAN_ELEMENT_THEORY":"SGP4","TLE_LINE2":"2 48143  53.0534 219.5064 0002227  76.8596 283.2640 15.03953803 39872","ECCENTRICITY":"0.00022270","PERIAPSIS":"553.177","OBJECT_NAME":"STARLINK-2486","INCLINATION":"53.0534","ARG_OF_PERICENTER":"76.8596","RCS_SIZE":"LARGE","REF_FRAME":"TEME","PERIOD":"95.748","MEAN_MOTION_DDOT":"0.0000000000000","TLE_LINE1":"1 48143U 21027BD  21345.77320834  .00000621  00000-0  64234-4 0  9993","MEAN_ANOMALY":"283.2640","SEMIMAJOR_AXIS":"6932.856","DECAY_DATE":null,"APOAPSIS":"556.265","OBJECT_ID":"2021-027BD","CENTER_NAME":"EARTH","MEAN_MOTION":"15.03953803","ELEMENT_SET_NO":"999","SITE":"AFETR","LAUNCH_DATE":"2021-04-07","RA_OF_ASC_NODE":"219.5064","CLASSIFICATION_TYPE":"U","NORAD_CAT_ID":"48143","COUNTRY_CODE":"US","OBJECT_TYPE":"PAYLOAD"},{"APOAPSIS":"548.710","DECAY_DATE":null,"SEMIMAJOR_AXIS":"6925.374","MEAN_ANOMALY":"299.5273","ELEMENT_SET_NO":"999","MEAN_MOTION":"15.06391669","OBJECT_ID":"2021-027BE","CENTER_NAME":"EARTH","CLASSIFICATION_TYPE":"U","RA_OF_ASC_NODE":"264.9713","LAUNCH_DATE":"2021-04-07","SITE":"AFETR","OBJECT_TYPE":"PAYLOAD","COUNTRY_CODE":"US","NORAD_CAT_ID":"48144","GP_ID":"191521928","EPHEMERIS_TYPE":"0","FILE":"3237650","EPOCH":"2021-12-11T18:36:11.197440","ECCENTRICITY":"0.00021240","TLE_LINE2":"2 48144  53.0546 264.9713 0002124  60.5928 299.5273 15.06391669 39237","MEAN_ELEMENT_THEORY":"SGP4","BSTAR":"0.00007743700000","TIME_SYSTEM":"UTC","MEAN_MOTION_DOT":"0.00000872","REV_AT_EPOCH":"3923","RCS_SIZE":"LARGE","ARG_OF_PERICENTER":"60.5928","INCLINATION":"53.0546","OBJECT_NAME":"STARLINK-2487","PERIAPSIS":"545.768","TLE_LINE1":"1 48144U 21027BE  21345.77512960  .00000872  00000-0  77437-4 0  9994","MEAN_MOTION_DDOT":"0.0000000000000","PERIOD":"95.593","REF_FRAME":"TEME"},{"RCS_SIZE":"LARGE","ARG_OF_PERICENTER":"61.0667","INCLINATION":"53.0554","OBJECT_NAME":"STARLINK-2488","PERIAPSIS":"545.776","TLE_LINE1":"1 48145U 21027BF  21345.84516632  .00000898  00000-0  79234-4 0  9998","MEAN_MOTION_DDOT":"0.0000000000000","PERIOD":"95.593","REF_FRAME":"TEME","GP_ID":"191522178","EPHEMERIS_TYPE":"0","FILE":"3237650","EPOCH":"2021-12-11T20:17:02.370048","ECCENTRICITY":"0.00021250","TLE_LINE2":"2 48145  53.0554 264.6441 0002125  61.0667 299.0535 15.06388789 39256","MEAN_ELEMENT_THEORY":"SGP4","BSTAR":"0.00007923400000","TIME_SYSTEM":"UTC","MEAN_MOTION_DOT":"0.00000898","REV_AT_EPOCH":"3925","CLASSIFICATION_TYPE":"U","RA_OF_ASC_NODE":"264.6441","LAUNCH_DATE":"2021-04-07","SITE":"AFETR","OBJECT_TYPE":"PAYLOAD","COUNTRY_CODE":"US","NORAD_CAT_ID":"48145","APOAPSIS":"548.720","DECAY_DATE":null,"SEMIMAJOR_AXIS":"6925.383","MEAN_ANOMALY":"299.0535","ELEMENT_SET_NO":"999","MEAN_MOTION":"15.06388789","OBJECT_ID":"2021-027BF","CENTER_NAME":"EARTH"},{"RA_OF_ASC_NODE":"285.8481","CLASSIFICATION_TYPE":"U","SITE":"AFETR","LAUNCH_DATE":"2021-04-07","COUNTRY_CODE":"US","OBJECT_TYPE":"PAYLOAD","NORAD_CAT_ID":"48146","DECAY_DATE":null,"APOAPSIS":"548.827","SEMIMAJOR_AXIS":"6925.365","MEAN_ANOMALY":"304.7553","ELEMENT_SET_NO":"999","MEAN_MOTION":"15.06394731","OBJECT_ID":"2021-027BG","CENTER_NAME":"EARTH","ARG_OF_PERICENTER":"55.3653","RCS_SIZE":"LARGE","INCLINATION":"53.0564","OBJECT_NAME":"STARLINK-2489","PERIAPSIS":"545.633","TLE_LINE1":"1 48146U 21027BG  21345.57792342 -.00000526  00000-0 -16364-4 0  9998","PERIOD":"95.592","MEAN_MOTION_DDOT":"0.0000000000000","REF_FRAME":"TEME","GP_ID":"191522437","EPOCH":"2021-12-11T13:52:12.583488","FILE":"3237650","EPHEMERIS_TYPE":"0","TLE_LINE2":"2 48146  53.0564 285.8481 0002306  55.3653 304.7553 15.06394731 38931","ECCENTRICITY":"0.00023060","TIME_SYSTEM":"UTC","MEAN_ELEMENT_THEORY":"SGP4","BSTAR":"-0.00001636400000","REV_AT_EPOCH":"3893","MEAN_MOTION_DOT":"-0.00000526"},{"SEMIMAJOR_AXIS":"6925.354","DECAY_DATE":null,"APOAPSIS":"548.637","MEAN_ANOMALY":"301.1977","CENTER_NAME":"EARTH","OBJECT_ID":"2021-027BH","ELEMENT_SET_NO":"999","MEAN_MOTION":"15.06398217","RA_OF_ASC_NODE":"290.8071","CLASSIFICATION_TYPE":"U","SITE":"AFETR","LAUNCH_DATE":"2021-04-07","COUNTRY_CODE":"US","OBJECT_TYPE":"PAYLOAD","NORAD_CAT_ID":"48147","GP_ID":"191523180","EPOCH":"2021-12-11T13:48:53.608608","FILE":"3237650","EPHEMERIS_TYPE":"0","TIME_SYSTEM":"UTC","BSTAR":"0.00011050000000","MEAN_ELEMENT_THEORY":"SGP4","TLE_LINE2":"2 48147  53.0670 290.8071 0002047  58.9213 301.1977 15.06398217 38860","ECCENTRICITY":"0.00020470","MEAN_MOTION_DOT":"0.00001364","REV_AT_EPOCH":"3886","INCLINATION":"53.0670","ARG_OF_PERICENTER":"58.9213","RCS_SIZE":"LARGE","PERIAPSIS":"545.801","OBJECT_NAME":"STARLINK-2490","TLE_LINE1":"1 48147U 21027BH  21345.57562047  .00001364  00000-0  11050-3 0  9991","REF_FRAME":"TEME","PERIOD":"95.592","MEAN_MOTION_DDOT":"0.0000000000000"},{"GP_ID":"191521436","EPOCH":"2021-12-11T21:02:08.586528","FILE":"3237650","EPHEMERIS_TYPE":"0","TLE_LINE2":"2 48148  53.0556 284.5213 0002046  56.1505 303.9678 15.06394120 38963","ECCENTRICITY":"0.00020460","TIME_SYSTEM":"UTC","MEAN_ELEMENT_THEORY":"SGP4","BSTAR":"0.00006767300000","REV_AT_EPOCH":"3896","MEAN_MOTION_DOT":"0.00000726","ARG_OF_PERICENTER":"56.1505","RCS_SIZE":"LARGE","INCLINATION":"53.0556","OBJECT_NAME":"STARLINK-2491","PERIAPSIS":"545.815","TLE_LINE1":"1 48148U 21027BJ  21345.87648827  .00000726  00000-0  67673-4 0  9990","PERIOD":"95.593","MEAN_MOTION_DDOT":"0.0000000000000","REF_FRAME":"TEME","DECAY_DATE":null,"APOAPSIS":"548.649","SEMIMAJOR_AXIS":"6925.367","MEAN_ANOMALY":"303.9678","MEAN_MOTION":"15.06394120","ELEMENT_SET_NO":"999","OBJECT_ID":"2021-027BJ","CENTER_NAME":"EARTH","RA_OF_ASC_NODE":"284.5213","CLASSIFICATION_TYPE":"U","SITE":"AFETR","LAUNCH_DATE":"2021-04-07","COUNTRY_CODE":"US","OBJECT_TYPE":"PAYLOAD","NORAD_CAT_ID":"48148"},{"TLE_LINE1":"1 48149U 21027BK  21345.95574505  .00001304  00000-0  10645-3 0  9990","REF_FRAME":"TEME","PERIOD":"95.593","MEAN_MOTION_DDOT":"0.0000000000000","INCLINATION":"53.0527","ARG_OF_PERICENTER":"61.7188","RCS_SIZE":"LARGE","PERIAPSIS":"545.694","OBJECT_NAME":"STARLINK-2492","TIME_SYSTEM":"UTC","MEAN_ELEMENT_THEORY":"SGP4","BSTAR":"0.00010645000000","TLE_LINE2":"2 48149  53.0527 264.1506 0002249  61.7188 298.4028 15.06387563 39269","ECCENTRICITY":"0.00022490","REV_AT_EPOCH":"3926","MEAN_MOTION_DOT":"0.00001304","GP_ID":"191521686","EPOCH":"2021-12-11T22:56:16.372320","EPHEMERIS_TYPE":"0","FILE":"3237650","COUNTRY_CODE":"US","OBJECT_TYPE":"PAYLOAD","NORAD_CAT_ID":"48149","RA_OF_ASC_NODE":"264.1506","CLASSIFICATION_TYPE":"U","SITE":"AFETR","LAUNCH_DATE":"2021-04-07","OBJECT_ID":"2021-027BK","CENTER_NAME":"EARTH","ELEMENT_SET_NO":"999","MEAN_MOTION":"15.06387563","SEMIMAJOR_AXIS":"6925.387","DECAY_DATE":null,"APOAPSIS":"548.809","MEAN_ANOMALY":"298.4028"}];
